{
"type": "FeatureCollection",
"name": "边界线",
"crs": { "type": "name", "properties": { "name": "urn:ogc:def:crs:OGC:1.3:CRS84" } },
"features": [
{ "type": "Feature", "properties": { "id": null, "Name": "未命名路径", "description": null, "timestamp": null, "begin": null, "end": null, "altitudeMode": null, "tessellate": 1, "extrude": 0, "visibility": -1, "drawOrder": null, "icon": null }, "geometry": { "type": "LineString", "coordinates": [ ] } },
{ "type": "Feature", "properties": { "id": null, "Name": "未命名路径", "description": null, "timestamp": null, "begin": null, "end": null, "altitudeMode": null, "tessellate": 1, "extrude": 0, "visibility": -1, "drawOrder": null, "icon": null }, "geometry": { "type": "LineString", "coordinates": [ [ 121.702033119569293, 29.985797785496679, 0.0 ], [ 121.685404389105003, 29.966105487972449, 0.0 ] ] } },
{ "type": "Feature", "properties": { "id": null, "Name": "未命名路径", "description": null, "timestamp": null, "begin": null, "end": null, "altitudeMode": null, "tessellate": 1, "extrude": 0, "visibility": -1, "drawOrder": null, "icon": null }, "geometry": { "type": "LineString", "coordinates": [ [ 121.685276611275995, 29.966014394519171, 0.0 ], [ 121.674089368731984, 29.973587063294861, 0.0 ] ] } },
{ "type": "Feature", "properties": { "id": null, "Name": "未命名路径", "description": null, "timestamp": null, "begin": null, "end": null, "altitudeMode": null, "tessellate": 1, "extrude": 0, "visibility": -1, "drawOrder": null, "icon": null }, "geometry": { "type": "LineString", "coordinates": [ [ 121.673924619327721, 29.973221204657619, 0.0 ], [ 121.668960341156748, 29.96967814608178, 0.0 ] ] } },
{ "type": "Feature", "properties": { "id": null, "Name": "未命名路径", "description": null, "timestamp": null, "begin": null, "end": null, "altitudeMode": null, "tessellate": 1, "extrude": 0, "visibility": -1, "drawOrder": null, "icon": null }, "geometry": { "type": "LineString", "coordinates": [ [ 121.668960341156748, 29.96967814608178, 0.0 ], [ 121.656768486617395, 29.97979292311333, 0.0 ] ] } },
{ "type": "Feature", "properties": { "id": null, "Name": "未命名路径", "description": null, "timestamp": null, "begin": null, "end": null, "altitudeMode": null, "tessellate": 1, "extrude": 0, "visibility": -1, "drawOrder": null, "icon": null }, "geometry": { "type": "LineString", "coordinates": [ [ 121.656808069113595, 29.97977454232689, 0.0 ], [ 121.650430309221704, 29.985431900710701, 0.0 ] ] } },
{ "type": "Feature", "properties": { "id": null, "Name": "未命名路径", "description": null, "timestamp": null, "begin": null, "end": null, "altitudeMode": null, "tessellate": 1, "extrude": 0, "visibility": -1, "drawOrder": null, "icon": null }, "geometry": { "type": "LineString", "coordinates": [ [ 121.702136576927899, 29.986018982375299, 0.0 ], [ 121.670516508055599, 30.00430630331822, 0.0 ] ] } },
{ "type": "Feature", "properties": { "id": null, "Name": "未命名路径", "description": null, "timestamp": null, "begin": null, "end": null, "altitudeMode": null, "tessellate": 1, "extrude": 0, "visibility": -1, "drawOrder": null, "icon": null }, "geometry": { "type": "LineString", "coordinates": [ [ 121.650642593178603, 29.985785585360428, 0.0 ], [ 121.624542155474103, 30.007052849940859, 0.0 ] ] } },
{ "type": "Feature", "properties": { "id": null, "Name": "未命名路径", "description": null, "timestamp": null, "begin": null, "end": null, "altitudeMode": null, "tessellate": 1, "extrude": 0, "visibility": -1, "drawOrder": null, "icon": null }, "geometry": { "type": "LineString", "coordinates": [ [ 121.663622655668206, 30.03859380961298, 0.0 ], [ 121.647116708902203, 30.061577408115461, 0.0 ], [ 121.630681670054798, 30.050909983286051, 0.0 ], [ 121.624842241669697, 30.03911017110326, 0.0 ], [ 121.640258700982102, 30.016455130766229, 0.0 ], [ 121.624219835496902, 30.00669437821827, 0.0 ] ] } },
{ "type": "Feature", "properties": { "id": null, "Name": "未命名路径", "description": null, "timestamp": null, "begin": null, "end": null, "altitudeMode": null, "tessellate": 1, "extrude": 0, "visibility": -1, "drawOrder": null, "icon": null }, "geometry": { "type": "LineString", "coordinates": [ [ 121.670486549565396, 30.00448258402384, 0.0 ], [ 121.666972284949395, 30.009071789757559, 0.0 ], [ 121.677253885490998, 30.015392993605989, 0.0 ], [ 121.663664280275, 30.038500443353819, 0.0 ] ] } }
]
}
